{"type": "FeatureCollection", "features": [{"type": "Feature", "geometry": {"type": "Point", "coordinates": [123.31562, 0.42906]}, "properties": {"satellite": "NOAA-21", "acq_date": "2026-10-08", "acq_time": "16:35 UTC", "acq_time_wita": "00:35 WITA", "confidence_level": "Medium", "confidence_raw": "n", "lokasi": "Desa Tulabolo Timur, Kec. Suwawa Timur, Bone Bolango, Gorontalo", "desa": "Tulabolo Timur", "kecamatan": "Suwawa Timur", "kabupaten": "Bone Bolango", "provinsi": "Gorontalo", "latitude": 0.42906, "longitude": 123.31562, "kph": "KPH Wil. VII Bone Bolango dan Gorontalo Kota", "pbph": null, "fungsi": "HPT", "gmaps_url": "https://www.google.com/maps/search/?api=1&query=0.42906,123.31562"}}, {"type": "Feature", "geometry": {"type": "Point", "coordinates": [124.21711, 0.47947]}, "properties": {"satellite": "NOAA-21", "acq_date": "2026-10-08", "acq_time": "16:35 UTC", "acq_time_wita": "00:35 WITA", "confidence_level": "Medium", "confidence_raw": "n", "lokasi": "Desa Torosik, Kec. Pinolosian Tengah, Bolaang Mongondow Selatan, Sulawesi Utara", "desa": "Torosik", "kecamatan": "Pinolosian Tengah", "kabupaten": "Bolaang Mongondow Selatan", "provinsi": "Sulawesi Utara", "latitude": 0.47947, "longitude": 124.21711, "kph": "KPH UNIT II BOLAANG MONGONDOW TIMUR DAN BOLAANG MONGONDOW SELATAN", "pbph": null, "fungsi": "HP", "gmaps_url": "https://www.google.com/maps/search/?api=1&query=0.47947,124.21711"}}, {"type": "Feature", "geometry": {"type": "Point", "coordinates": [124.21934, 0.48105]}, "properties": {"satellite": "NOAA-21", "acq_date": "2026-10-08", "acq_time": "16:35 UTC", "acq_time_wita": "00:35 WITA", "confidence_level": "Medium", "confidence_raw": "n", "lokasi": "Desa Torosik, Kec. Pinolosian Tengah, Bolaang Mongondow Selatan, Sulawesi Utara", "desa": "Torosik", "kecamatan": "Pinolosian Tengah", "kabupaten": "Bolaang Mongondow Selatan", "provinsi": "Sulawesi Utara", "latitude": 0.48105, "longitude": 124.21934, "kph": "KPH UNIT II BOLAANG MONGONDOW TIMUR DAN BOLAANG MONGONDOW SELATAN", "pbph": null, "fungsi": "HP", "gmaps_url": "https://www.google.com/maps/search/?api=1&query=0.48105,124.21934"}}, {"type": "Feature", "geometry": {"type": "Point", "coordinates": [123.7299, 0.71518]}, "properties": {"satellite": "NOAA-21", "acq_date": "2026-10-08", "acq_time": "16:35 UTC", "acq_time_wita": "00:35 WITA", "confidence_level": "Medium", "confidence_raw": "n", "lokasi": "Desa Domisil Moonow, Kec. Sang Tombolang, Bolaang Mongondow, Sulawesi Utara", "desa": "Domisil Moonow", "kecamatan": "Sang Tombolang", "kabupaten": "Bolaang Mongondow", "provinsi": "Sulawesi Utara", "latitude": 0.71518, "longitude": 123.7299, "kph": "KPH Unit I Bolaang Mongondow dan Bolaang Mongondow Utara", "pbph": null, "fungsi": "HPT", "gmaps_url": "https://www.google.com/maps/search/?api=1&query=0.71518,123.7299"}}, {"type": "Feature", "geometry": {"type": "Point", "coordinates": [123.72628, 0.71574]}, "properties": {"satellite": "NOAA-21", "acq_date": "2026-10-08", "acq_time": "16:35 UTC", "acq_time_wita": "00:35 WITA", "confidence_level": "Medium", "confidence_raw": "n", "lokasi": "Desa Domisil Moonow, Kec. Sang Tombolang, Bolaang Mongondow, Sulawesi Utara", "desa": "Domisil Moonow", "kecamatan": "Sang Tombolang", "kabupaten": "Bolaang Mongondow", "provinsi": "Sulawesi Utara", "latitude": 0.71574, "longitude": 123.72628, "kph": "KPH Unit I Bolaang Mongondow dan Bolaang Mongondow Utara", "pbph": null, "fungsi": "HPT", "gmaps_url": "https://www.google.com/maps/search/?api=1&query=0.71574,123.72628"}}, {"type": "Feature", "geometry": {"type": "Point", "coordinates": [123.72269, 0.71629]}, "properties": {"satellite": "NOAA-21", "acq_date": "2026-10-08", "acq_time": "16:35 UTC", "acq_time_wita": "00:35 WITA", "confidence_level": "Medium", "confidence_raw": "n", "lokasi": "Desa Domisil Moonow, Kec. Sang Tombolang, Bolaang Mongondow, Sulawesi Utara", "desa": "Domisil Moonow", "kecamatan": "Sang Tombolang", "kabupaten": "Bolaang Mongondow", "provinsi": "Sulawesi Utara", "latitude": 0.71629, "longitude": 123.72269, "kph": "KPH Unit I Bolaang Mongondow dan Bolaang Mongondow Utara", "pbph": null, "fungsi": "HP", "gmaps_url": "https://www.google.com/maps/search/?api=1&query=0.71629,123.72269"}}, {"type": "Feature", "geometry": {"type": "Point", "coordinates": [123.72367, 0.72156]}, "properties": {"satellite": "NOAA-21", "acq_date": "2026-10-08", "acq_time": "16:35 UTC", "acq_time_wita": "00:35 WITA", "confidence_level": "Medium", "confidence_raw": "n", "lokasi": "Desa Domisil Moonow, Kec. Sang Tombolang, Bolaang Mongondow, Sulawesi Utara", "desa": "Domisil Moonow", "kecamatan": "Sang Tombolang", "kabupaten": "Bolaang Mongondow", "provinsi": "Sulawesi Utara", "latitude": 0.72156, "longitude": 123.72367, "kph": "KPH Unit I Bolaang Mongondow dan Bolaang Mongondow Utara", "pbph": null, "fungsi": "HP", "gmaps_url": "https://www.google.com/maps/search/?api=1&query=0.72156,123.72367"}}, {"type": "Feature", "geometry": {"type": "Point", "coordinates": [123.53806, 0.79199]}, "properties": {"satellite": "NOAA-21", "acq_date": "2026-10-08", "acq_time": "16:35 UTC", "acq_time_wita": "00:35 WITA", "confidence_level": "Medium", "confidence_raw": "n", "lokasi": "Desa Mome, Kec. Bintauna, Bolaang Mongondow Utara, Sulawesi Utara", "desa": "Mome", "kecamatan": "Bintauna", "kabupaten": "Bolaang Mongondow Utara", "provinsi": "Sulawesi Utara", "latitude": 0.79199, "longitude": 123.53806, "kph": "KPH Unit I Bolaang Mongondow dan Bolaang Mongondow Utara", "pbph": null, "fungsi": "HPK", "gmaps_url": "https://www.google.com/maps/search/?api=1&query=0.79199,123.53806"}}, {"type": "Feature", "geometry": {"type": "Point", "coordinates": [123.5352, 0.79242]}, "properties": {"satellite": "NOAA-21", "acq_date": "2026-10-08", "acq_time": "16:35 UTC", "acq_time_wita": "00:35 WITA", "confidence_level": "Medium", "confidence_raw": "n", "lokasi": "Desa Mome, Kec. Bintauna, Bolaang Mongondow Utara, Sulawesi Utara", "desa": "Mome", "kecamatan": "Bintauna", "kabupaten": "Bolaang Mongondow Utara", "provinsi": "Sulawesi Utara", "latitude": 0.79242, "longitude": 123.5352, "kph": "KPH Unit I Bolaang Mongondow dan Bolaang Mongondow Utara", "pbph": null, "fungsi": "HPK", "gmaps_url": "https://www.google.com/maps/search/?api=1&query=0.79242,123.5352"}}, {"type": "Feature", "geometry": {"type": "Point", "coordinates": [123.53632, 0.79466]}, "properties": {"satellite": "NOAA-21", "acq_date": "2026-10-08", "acq_time": "16:35 UTC", "acq_time_wita": "00:35 WITA", "confidence_level": "Medium", "confidence_raw": "n", "lokasi": "Desa Mome, Kec. Bintauna, Bolaang Mongondow Utara, Sulawesi Utara", "desa": "Mome", "kecamatan": "Bintauna", "kabupaten": "Bolaang Mongondow Utara", "provinsi": "Sulawesi Utara", "latitude": 0.79466, "longitude": 123.53632, "kph": "KPH Unit I Bolaang Mongondow dan Bolaang Mongondow Utara", "pbph": null, "fungsi": "HPK", "gmaps_url": "https://www.google.com/maps/search/?api=1&query=0.79466,123.53632"}}, {"type": "Feature", "geometry": {"type": "Point", "coordinates": [123.80766, 0.79989]}, "properties": {"satellite": "NOAA-21", "acq_date": "2026-10-08", "acq_time": "16:35 UTC", "acq_time_wita": "00:35 WITA", "confidence_level": "Medium", "confidence_raw": "n", "lokasi": "Desa Batu Merah, Kec. Sang Tombolang, Bolaang Mongondow, Sulawesi Utara", "desa": "Batu Merah", "kecamatan": "Sang Tombolang", "kabupaten": "Bolaang Mongondow", "provinsi": "Sulawesi Utara", "latitude": 0.79989, "longitude": 123.80766, "kph": null, "pbph": null, "fungsi": "TN", "gmaps_url": "https://www.google.com/maps/search/?api=1&query=0.79989,123.80766"}}, {"type": "Feature", "geometry": {"type": "Point", "coordinates": [122.93594, 0.80398]}, "properties": {"satellite": "NOAA-21", "acq_date": "2026-10-08", "acq_time": "16:35 UTC", "acq_time_wita": "00:35 WITA", "confidence_level": "Medium", "confidence_raw": "n", "lokasi": "Desa Bualemo, Kec. Kwandang, Gorontalo Utara, Gorontalo", "desa": "Bualemo", "kecamatan": "Kwandang", "kabupaten": "Gorontalo Utara", "provinsi": "Gorontalo", "latitude": 0.80398, "longitude": 122.93594, "kph": null, "pbph": null, "fungsi": "APL", "gmaps_url": "https://www.google.com/maps/search/?api=1&query=0.80398,122.93594"}}, {"type": "Feature", "geometry": {"type": "Point", "coordinates": [123.38196, 0.83024]}, "properties": {"satellite": "NOAA-21", "acq_date": "2026-10-08", "acq_time": "16:35 UTC", "acq_time_wita": "00:35 WITA", "confidence_level": "Medium", "confidence_raw": "n", "lokasi": "Desa Mokoditek I, Kec. Bolangitang Timur, Bolaang Mongondow Utara, Sulawesi Utara", "desa": "Mokoditek I", "kecamatan": "Bolangitang Timur", "kabupaten": "Bolaang Mongondow Utara", "provinsi": "Sulawesi Utara", "latitude": 0.83024, "longitude": 123.38196, "kph": "KPH Unit I Bolaang Mongondow dan Bolaang Mongondow Utara", "pbph": null, "fungsi": "HPT", "gmaps_url": "https://www.google.com/maps/search/?api=1&query=0.83024,123.38196"}}, {"type": "Feature", "geometry": {"type": "Point", "coordinates": [123.38037, 0.8324]}, "properties": {"satellite": "NOAA-21", "acq_date": "2026-10-08", "acq_time": "16:35 UTC", "acq_time_wita": "00:35 WITA", "confidence_level": "Medium", "confidence_raw": "n", "lokasi": "Desa Mokoditek I, Kec. Bolangitang Timur, Bolaang Mongondow Utara, Sulawesi Utara", "desa": "Mokoditek I", "kecamatan": "Bolangitang Timur", "kabupaten": "Bolaang Mongondow Utara", "provinsi": "Sulawesi Utara", "latitude": 0.8324, "longitude": 123.38037, "kph": null, "pbph": null, "fungsi": "APL", "gmaps_url": "https://www.google.com/maps/search/?api=1&query=0.8324,123.38037"}}, {"type": "Feature", "geometry": {"type": "Point", "coordinates": [121.47746, 0.86283]}, "properties": {"satellite": "NOAA-21", "acq_date": "2026-10-08", "acq_time": "16:35 UTC", "acq_time_wita": "00:35 WITA", "confidence_level": "Medium", "confidence_raw": "n", "lokasi": "Desa Binuang, Kec. Bukal, Buol, Sulawesi Tengah", "desa": "Binuang", "kecamatan": "Bukal", "kabupaten": "Buol", "provinsi": "Sulawesi Tengah", "latitude": 0.86283, "longitude": 121.47746, "kph": "KPH Pogogul", "pbph": null, "fungsi": "HL", "gmaps_url": "https://www.google.com/maps/search/?api=1&query=0.86283,121.47746"}}, {"type": "Feature", "geometry": {"type": "Point", "coordinates": [124.33242, 0.88404]}, "properties": {"satellite": "NOAA-21", "acq_date": "2026-10-08", "acq_time": "16:35 UTC", "acq_time_wita": "00:35 WITA", "confidence_level": "Medium", "confidence_raw": "n", "lokasi": "Desa Gogaluman, Kec. Poigar, Bolaang Mongondow, Sulawesi Utara", "desa": "Gogaluman", "kecamatan": "Poigar", "kabupaten": "Bolaang Mongondow", "provinsi": "Sulawesi Utara", "latitude": 0.88404, "longitude": 124.33242, "kph": "KPH Model Unit IV Poigar", "pbph": null, "fungsi": "HPT", "gmaps_url": "https://www.google.com/maps/search/?api=1&query=0.88404,124.33242"}}, {"type": "Feature", "geometry": {"type": "Point", "coordinates": [121.35824, 0.95012]}, "properties": {"satellite": "NOAA-21", "acq_date": "2026-10-08", "acq_time": "16:35 UTC", "acq_time_wita": "00:35 WITA", "confidence_level": "Medium", "confidence_raw": "n", "lokasi": "Desa Unone, Kec. Bukal, Buol, Sulawesi Tengah", "desa": "Unone", "kecamatan": "Bukal", "kabupaten": "Buol", "provinsi": "Sulawesi Tengah", "latitude": 0.95012, "longitude": 121.35824, "kph": null, "pbph": null, "fungsi": "APL", "gmaps_url": "https://www.google.com/maps/search/?api=1&query=0.95012,121.35824"}}, {"type": "Feature", "geometry": {"type": "Point", "coordinates": [125.3922, 2.78169]}, "properties": {"satellite": "NOAA-21", "acq_date": "2026-10-08", "acq_time": "16:35 UTC", "acq_time_wita": "00:35 WITA", "confidence_level": "Medium", "confidence_raw": "n", "lokasi": "Desa Winangun, Kec. Siau Barat Utara, Kepulauan Siau Tagulandang Biaro, Sulawesi Utara", "desa": "Winangun", "kecamatan": "Siau Barat Utara", "kabupaten": "Kepulauan Siau Tagulandang Biaro", "provinsi": "Sulawesi Utara", "latitude": 2.78169, "longitude": 125.3922, "kph": null, "pbph": null, "fungsi": "APL", "gmaps_url": "https://www.google.com/maps/search/?api=1&query=2.78169,125.3922"}}, {"type": "Feature", "geometry": {"type": "Point", "coordinates": [125.39746, 2.78252]}, "properties": {"satellite": "NOAA-21", "acq_date": "2026-10-08", "acq_time": "16:35 UTC", "acq_time_wita": "00:35 WITA", "confidence_level": "Medium", "confidence_raw": "n", "lokasi": "Desa Kiawang, Kec. Siau Barat Utara, Kepulauan Siau Tagulandang Biaro, Sulawesi Utara", "desa": "Kiawang", "kecamatan": "Siau Barat Utara", "kabupaten": "Kepulauan Siau Tagulandang Biaro", "provinsi": "Sulawesi Utara", "latitude": 2.78252, "longitude": 125.39746, "kph": null, "pbph": null, "fungsi": "APL", "gmaps_url": "https://www.google.com/maps/search/?api=1&query=2.78252,125.39746"}}, {"type": "Feature", "geometry": {"type": "Point", "coordinates": [122.9863, -1.38907]}, "properties": {"satellite": "NOAA-21", "acq_date": "2026-10-08", "acq_time": "16:37 UTC", "acq_time_wita": "00:37 WITA", "confidence_level": "Medium", "confidence_raw": "n", "lokasi": "Desa Mangais, Kec. Bulagi Selatan, Banggai Kepulauan, Sulawesi Tengah", "desa": "Mangais", "kecamatan": "Bulagi Selatan", "kabupaten": "Banggai Kepulauan", "provinsi": "Sulawesi Tengah", "latitude": -1.38907, "longitude": 122.9863, "kph": "KPH Pulau Peling", "pbph": null, "fungsi": "HL", "gmaps_url": "https://www.google.com/maps/search/?api=1&query=-1.38907,122.9863"}}, {"type": "Feature", "geometry": {"type": "Point", "coordinates": [122.98702, -1.38634]}, "properties": {"satellite": "NOAA-21", "acq_date": "2026-10-08", "acq_time": "16:37 UTC", "acq_time_wita": "00:37 WITA", "confidence_level": "Medium", "confidence_raw": "n", "lokasi": "Desa Mangais, Kec. Bulagi Selatan, Banggai Kepulauan, Sulawesi Tengah", "desa": "Mangais", "kecamatan": "Bulagi Selatan", "kabupaten": "Banggai Kepulauan", "provinsi": "Sulawesi Tengah", "latitude": -1.38634, "longitude": 122.98702, "kph": "KPH Pulau Peling", "pbph": null, "fungsi": "HL", "gmaps_url": "https://www.google.com/maps/search/?api=1&query=-1.38634,122.98702"}}, {"type": "Feature", "geometry": {"type": "Point", "coordinates": [119.86355, -1.10937]}, "properties": {"satellite": "NOAA-21", "acq_date": "2026-10-08", "acq_time": "16:37 UTC", "acq_time_wita": "00:37 WITA", "confidence_level": "Medium", "confidence_raw": "n", "lokasi": "Desa Jono, Kec. Dolo Selatan, Sigi, Sulawesi Tengah", "desa": "Jono", "kecamatan": "Dolo Selatan", "kabupaten": "Sigi", "provinsi": "Sulawesi Tengah", "latitude": -1.10937, "longitude": 119.86355, "kph": "KPH Kulawi", "pbph": null, "fungsi": "HL", "gmaps_url": "https://www.google.com/maps/search/?api=1&query=-1.10937,119.86355"}}, {"type": "Feature", "geometry": {"type": "Point", "coordinates": [119.8604, -1.10887]}, "properties": {"satellite": "NOAA-21", "acq_date": "2026-10-08", "acq_time": "16:37 UTC", "acq_time_wita": "00:37 WITA", "confidence_level": "Medium", "confidence_raw": "n", "lokasi": "Desa Jono, Kec. Dolo Selatan, Sigi, Sulawesi Tengah", "desa": "Jono", "kecamatan": "Dolo Selatan", "kabupaten": "Sigi", "provinsi": "Sulawesi Tengah", "latitude": -1.10887, "longitude": 119.8604, "kph": "KPH Kulawi", "pbph": null, "fungsi": "HL", "gmaps_url": "https://www.google.com/maps/search/?api=1&query=-1.10887,119.8604"}}, {"type": "Feature", "geometry": {"type": "Point", "coordinates": [119.86303, -1.10775]}, "properties": {"satellite": "NOAA-21", "acq_date": "2026-10-08", "acq_time": "16:37 UTC", "acq_time_wita": "00:37 WITA", "confidence_level": "Medium", "confidence_raw": "n", "lokasi": "Desa Jono, Kec. Dolo Selatan, Sigi, Sulawesi Tengah", "desa": "Jono", "kecamatan": "Dolo Selatan", "kabupaten": "Sigi", "provinsi": "Sulawesi Tengah", "latitude": -1.10775, "longitude": 119.86303, "kph": "KPH Kulawi", "pbph": null, "fungsi": "HL", "gmaps_url": "https://www.google.com/maps/search/?api=1&query=-1.10775,119.86303"}}, {"type": "Feature", "geometry": {"type": "Point", "coordinates": [122.94726, -0.77565]}, "properties": {"satellite": "NOAA-21", "acq_date": "2026-10-08", "acq_time": "16:37 UTC", "acq_time_wita": "00:37 WITA", "confidence_level": "Medium", "confidence_raw": "n", "lokasi": "Desa Siuna, Kec. Pagimana, Banggai, Sulawesi Tengah", "desa": "Siuna", "kecamatan": "Pagimana", "kabupaten": "Banggai", "provinsi": "Sulawesi Tengah", "latitude": -0.77565, "longitude": 122.94726, "kph": "KPH Balantak", "pbph": null, "fungsi": "HPT", "gmaps_url": "https://www.google.com/maps/search/?api=1&query=-0.77565,122.94726"}}, {"type": "Feature", "geometry": {"type": "Point", "coordinates": [122.97526, -0.71876]}, "properties": {"satellite": "NOAA-21", "acq_date": "2026-10-08", "acq_time": "16:37 UTC", "acq_time_wita": "00:37 WITA", "confidence_level": "Medium", "confidence_raw": "n", "lokasi": "Desa Siuna, Kec. Pagimana, Banggai, Sulawesi Tengah", "desa": "Siuna", "kecamatan": "Pagimana", "kabupaten": "Banggai", "provinsi": "Sulawesi Tengah", "latitude": -0.71876, "longitude": 122.97526, "kph": "KPH Balantak", "pbph": null, "fungsi": "HPT", "gmaps_url": "https://www.google.com/maps/search/?api=1&query=-0.71876,122.97526"}}, {"type": "Feature", "geometry": {"type": "Point", "coordinates": [122.97591, -0.71719]}, "properties": {"satellite": "NOAA-21", "acq_date": "2026-10-08", "acq_time": "16:37 UTC", "acq_time_wita": "00:37 WITA", "confidence_level": "Medium", "confidence_raw": "n", "lokasi": "Desa Siuna, Kec. Pagimana, Banggai, Sulawesi Tengah", "desa": "Siuna", "kecamatan": "Pagimana", "kabupaten": "Banggai", "provinsi": "Sulawesi Tengah", "latitude": -0.71719, "longitude": 122.97591, "kph": "KPH Balantak", "pbph": null, "fungsi": "HPT", "gmaps_url": "https://www.google.com/maps/search/?api=1&query=-0.71719,122.97591"}}]}