{"type":"FeatureCollection","features":[{"type":"Feature","geometry":{"type":"MultiPolygon","coordinates":[[[[121.09005,-1.80187],[121.0759,-1.79687],[121.06145,-1.79806],[121.04082,-1.80664],[121.03536,-1.80545],[121.04137,-1.79942],[121.04421,-1.79342],[121.04645,-1.77014],[121.0488,-1.76185],[121.0493,-1.76076],[121.05588,-1.76144],[121.05747,-1.76679],[121.05587,-1.77159],[121.06171,-1.77481],[121.07233,-1.76867],[121.07181,-1.75905],[121.0758,-1.75665],[121.0811,-1.75853],[121.08774,-1.75426],[121.09411,-1.75427],[121.09783,-1.75267],[121.10129,-1.74599],[121.10153,-1.7398],[121.09945,-1.73584],[121.10183,-1.73291],[121.10449,-1.73157],[121.11219,-1.73558],[121.1176,-1.73191],[121.12704,-1.72859],[121.13207,-1.72263],[121.13342,-1.72447],[121.13054,-1.72646],[121.13106,-1.73029],[121.13302,-1.72668],[121.13513,-1.72801],[121.13376,-1.72038],[121.13674,-1.72145],[121.13635,-1.71868],[121.13959,-1.71906],[121.13944,-1.72204],[121.14212,-1.72316],[121.1423,-1.72915],[121.14424,-1.73023],[121.14122,-1.73465],[121.14332,-1.74125],[121.1353,-1.73825],[121.12704,-1.73994],[121.12604,-1.74163],[121.1318,-1.74547],[121.1349,-1.7544],[121.15054,-1.75867],[121.15539,-1.76637],[121.15646,-1.77242],[121.15603,-1.77759],[121.15318,-1.7821],[121.14185,-1.7788],[121.13874,-1.77964],[121.13837,-1.78355],[121.14849,-1.79603],[121.15597,-1.79952],[121.16092,-1.79703],[121.16262,-1.7938],[121.1651,-1.77783],[121.16735,-1.77695],[121.16931,-1.77886],[121.17296,-1.79958],[121.17254,-1.82346],[121.18008,-1.83336],[121.18122,-1.83963],[121.17867,-1.84363],[121.18523,-1.86219],[121.18255,-1.86395],[121.17493,-1.85955],[121.173,-1.87138],[121.16768,-1.8776],[121.16851,-1.88072],[121.17543,-1.88702],[121.17672,-1.89253],[121.17564,-1.90055],[121.17325,-1.90137],[121.1686,-1.89818],[121.16612,-1.89857],[121.156,-1.91512],[121.15812,-1.92166],[121.15719,-1.92485],[121.15413,-1.92659],[121.15137,-1.92505],[121.15067,-1.92239],[121.14251,-1.92468],[121.14145,-1.92675],[121.14632,-1.9298],[121.14392,-1.92972],[121.14156,-1.93241],[121.14277,-1.93838],[121.13801,-1.93852],[121.13695,-1.94114],[121.13134,-1.93849],[121.1299,-1.94026],[121.13194,-1.94293],[121.13106,-1.94379],[121.1276,-1.94218],[121.12296,-1.94403],[121.12838,-1.93561],[121.12681,-1.92642],[121.1281,-1.92172],[121.13371,-1.91666],[121.1549,-1.91533],[121.15807,-1.89797],[121.1678,-1.89654],[121.16671,-1.86179],[121.15672,-1.86223],[121.14337,-1.84828],[121.13067,-1.8312],[121.10446,-1.81024],[121.09005,-1.80187]]],[[[121.08344,-1.71807],[121.08322,-1.71165],[121.08845,-1.7088],[121.09566,-1.70167],[121.10385,-1.69047],[121.10372,-1.70451],[121.09813,-1.7057],[121.09349,-1.71014],[121.09213,-1.72136],[121.08716,-1.72088],[121.08344,-1.71807]]],[[[121.15363,-1.74481],[121.15105,-1.74218],[121.14841,-1.7425],[121.14495,-1.74181],[121.14495,-1.74125],[121.1467,-1.74201],[121.14854,-1.73952],[121.15458,-1.74012],[121.15393,-1.73319],[121.15248,-1.73176],[121.15397,-1.72873],[121.15748,-1.72995],[121.15883,-1.72872],[121.15708,-1.72449],[121.15883,-1.71989],[121.16253,-1.71932],[121.16213,-1.72304],[121.16558,-1.72643],[121.16451,-1.71879],[121.16679,-1.72005],[121.16816,-1.71662],[121.16446,-1.70855],[121.16143,-1.70555],[121.16348,-1.70161],[121.16694,-1.7008],[121.19102,-1.72804],[121.18658,-1.73399],[121.18602,-1.7405],[121.1926,-1.76032],[121.19609,-1.77852],[121.20054,-1.78455],[121.20661,-1.78601],[121.21231,-1.79739],[121.2123,-1.80685],[121.20994,-1.81512],[121.21228,-1.82575],[121.2158,-1.83048],[121.2241,-1.8289],[121.22844,-1.83942],[121.22769,-1.84235],[121.21788,-1.84486],[121.21562,-1.84382],[121.21055,-1.8277],[121.2054,-1.82347],[121.20296,-1.82562],[121.20249,-1.83558],[121.19697,-1.83619],[121.19438,-1.8336],[121.19325,-1.82867],[121.19654,-1.8205],[121.19671,-1.81597],[121.1826,-1.7993],[121.18044,-1.76158],[121.17894,-1.75682],[121.16467,-1.75482],[121.16025,-1.74689],[121.15363,-1.74481]]],[[[121.15398,-1.44791],[121.15455,-1.44242],[121.15742,-1.4372],[121.16087,-1.43611],[121.1704,-1.43818],[121.17611,-1.43763],[121.18705,-1.41977],[121.19669,-1.41429],[121.21626,-1.40825],[121.25391,-1.37495],[121.259,-1.37398],[121.26439,-1.37521],[121.2745,-1.38241],[121.28055,-1.38006],[121.28291,-1.37654],[121.28592,-1.35375],[121.28115,-1.33876],[121.28308,-1.33622],[121.28828,-1.3352],[121.29127,-1.33692],[121.3126,-1.38199],[121.31426,-1.39823],[121.31836,-1.40245],[121.32997,-1.40886],[121.34055,-1.41908],[121.35075,-1.42344],[121.36313,-1.44069],[121.36876,-1.45128],[121.36449,-1.45859],[121.35635,-1.46295],[121.34169,-1.45932],[121.33716,-1.45637],[121.33414,-1.45152],[121.33262,-1.44577],[121.33246,-1.43223],[121.31938,-1.41624],[121.31392,-1.41537],[121.30128,-1.42283],[121.29403,-1.42395],[121.28838,-1.41982],[121.27948,-1.40291],[121.27426,-1.40134],[121.26365,-1.40316],[121.26008,-1.40733],[121.26009,-1.41278],[121.27792,-1.42245],[121.28268,-1.42859],[121.28341,-1.44325],[121.29445,-1.45799],[121.29635,-1.47514],[121.30128,-1.47625],[121.30758,-1.46912],[121.3128,-1.46674],[121.32582,-1.47039],[121.33867,-1.47144],[121.34396,-1.47347],[121.34818,-1.4773],[121.35754,-1.494],[121.36155,-1.49739],[121.39201,-1.49914],[121.40807,-1.50479],[121.42054,-1.50676],[121.43037,-1.5171],[121.42945,-1.52597],[121.43403,-1.53935],[121.42859,-1.54102],[121.42498,-1.54446],[121.41822,-1.54518],[121.41685,-1.54816],[121.41316,-1.54819],[121.40461,-1.54272],[121.40136,-1.53676],[121.39144,-1.53242],[121.38316,-1.53209],[121.37508,-1.53261],[121.37323,-1.53644],[121.36613,-1.5411],[121.36106,-1.53905],[121.35266,-1.54769],[121.34641,-1.54789],[121.34321,-1.55136],[121.33924,-1.55217],[121.33558,-1.5526],[121.33417,-1.54987],[121.3329,-1.55057],[121.32973,-1.54793],[121.32584,-1.55012],[121.3229,-1.54824],[121.31503,-1.55031],[121.30687,-1.54489],[121.30406,-1.54786],[121.29829,-1.5478],[121.29192,-1.55398],[121.2871,-1.55553],[121.28741,-1.56203],[121.2902,-1.56683],[121.28918,-1.56964],[121.28739,-1.57041],[121.2852,-1.56846],[121.2731,-1.58217],[121.25499,-1.58227],[121.25274,-1.58154],[121.2574,-1.57256],[121.26376,-1.55353],[121.27248,-1.55135],[121.27421,-1.54962],[121.27145,-1.54509],[121.27318,-1.54267],[121.27836,-1.54372],[121.28078,-1.54302],[121.28215,-1.54059],[121.27907,-1.53433],[121.27975,-1.52845],[121.27286,-1.51768],[121.27252,-1.51109],[121.26838,-1.50485],[121.26805,-1.50102],[121.26654,-1.49994],[121.26852,-1.50851],[121.26539,-1.5136],[121.26075,-1.51733],[121.25532,-1.51662],[121.25016,-1.50974],[121.24467,-1.51088],[121.24768,-1.52461],[121.24596,-1.52981],[121.25147,-1.54092],[121.25112,-1.54335],[121.24836,-1.54369],[121.24147,-1.53918],[121.23698,-1.53951],[121.23319,-1.54264],[121.23319,-1.54472],[121.23663,-1.54715],[121.23628,-1.55201],[121.23858,-1.55266],[121.24077,-1.5482],[121.24284,-1.5475],[121.24729,-1.55104],[121.22951,-1.56573],[121.22123,-1.57639],[121.2199,-1.58624],[121.22581,-1.60146],[121.22728,-1.6159],[121.2259,-1.61275],[121.22411,-1.6134],[121.20561,-1.59838],[121.20541,-1.60462],[121.20305,-1.60185],[121.19345,-1.60238],[121.19447,-1.59389],[121.19695,-1.59211],[121.19483,-1.58689],[121.19655,-1.58014],[121.19592,-1.57689],[121.19154,-1.57237],[121.19068,-1.56828],[121.18228,-1.56527],[121.17099,-1.56765],[121.17537,-1.56136],[121.18779,-1.55314],[121.19198,-1.54683],[121.20672,-1.53446],[121.21262,-1.51469],[121.22032,-1.50971],[121.22312,-1.50592],[121.22177,-1.49392],[121.21448,-1.48554],[121.20914,-1.48408],[121.21024,-1.48293],[121.20882,-1.48004],[121.20414,-1.48158],[121.20171,-1.48442],[121.20215,-1.48738],[121.1934,-1.49365],[121.18216,-1.50669],[121.17586,-1.5218],[121.16895,-1.53048],[121.16336,-1.51512],[121.16441,-1.49857],[121.16203,-1.48146],[121.16365,-1.46757],[121.15398,-1.44791]],[[121.20972,-1.44939],[121.20882,-1.44896],[121.20899,-1.44936],[121.20972,-1.44939]],[[121.2145,-1.44901],[121.21439,-1.4499],[121.21585,-1.44992],[121.216,-1.44871],[121.2145,-1.44901]]],[[[121.21324,-1.34321],[121.21241,-1.34104],[121.20907,-1.34083],[121.20957,-1.33437],[121.20422,-1.33579],[121.20282,-1.33146],[121.20457,-1.33129],[121.20166,-1.32907],[121.20452,-1.32861],[121.20079,-1.32609],[121.20242,-1.32395],[121.20861,-1.32764],[121.21117,-1.32466],[121.21141,-1.3208],[121.20513,-1.31907],[121.20539,-1.31366],[121.20313,-1.31216],[121.20455,-1.31134],[121.20366,-1.3086],[121.20606,-1.30379],[121.20761,-1.305],[121.21217,-1.29993],[121.22157,-1.29746],[121.22645,-1.29921],[121.22661,-1.3015],[121.23158,-1.30673],[121.23653,-1.30835],[121.24376,-1.3153],[121.2489,-1.31792],[121.25047,-1.32079],[121.2525,-1.31793],[121.25477,-1.31987],[121.25739,-1.31799],[121.25957,-1.32041],[121.25388,-1.33167],[121.24788,-1.33829],[121.22251,-1.34623],[121.21258,-1.35227],[121.21324,-1.34321]]],[[[121.22082,-1.27391],[121.21818,-1.2706],[121.22109,-1.26415],[121.2265,-1.26317],[121.22638,-1.26034],[121.22948,-1.25526],[121.22121,-1.25034],[121.22111,-1.24627],[121.22428,-1.2427],[121.22611,-1.24212],[121.22893,-1.2442],[121.22798,-1.25018],[121.23072,-1.25416],[121.23325,-1.25461],[121.23755,-1.2512],[121.23541,-1.25016],[121.23666,-1.2487],[121.23501,-1.24425],[121.23586,-1.23566],[121.24177,-1.23307],[121.23894,-1.23536],[121.24523,-1.24013],[121.25477,-1.24025],[121.25736,-1.24322],[121.26063,-1.24134],[121.26058,-1.24649],[121.26513,-1.26466],[121.26012,-1.28539],[121.25497,-1.28339],[121.25184,-1.28332],[121.24804,-1.28421],[121.23814,-1.28099],[121.23356,-1.28108],[121.22834,-1.28413],[121.22549,-1.2838],[121.22302,-1.28451],[121.21897,-1.28211],[121.22013,-1.27681],[121.22443,-1.27704],[121.22451,-1.27438],[121.22082,-1.27391]]],[[[121.25843,-1.31139],[121.248,-1.30284],[121.24316,-1.30069],[121.2407,-1.29677],[121.2335,-1.29557],[121.22593,-1.29085],[121.22284,-1.29142],[121.2184,-1.2878],[121.21384,-1.28672],[121.21356,-1.28529],[121.21657,-1.28301],[121.22302,-1.28494],[121.22809,-1.2847],[121.23106,-1.28427],[121.23385,-1.28137],[121.23826,-1.28133],[121.24756,-1.28459],[121.25497,-1.28382],[121.26008,-1.28573],[121.26175,-1.30924],[121.26092,-1.31533],[121.25843,-1.31139]]],[[[121.26751,-1.21602],[121.27282,-1.2157],[121.27108,-1.22035],[121.26165,-1.21824],[121.26087,-1.2142],[121.26751,-1.21602]]],[[[121.28617,-1.16772],[121.3012,-1.15867],[121.30537,-1.15783],[121.30698,-1.16039],[121.30891,-1.15647],[121.3212,-1.14765],[121.33058,-1.15971],[121.33433,-1.16897],[121.33335,-1.17516],[121.32802,-1.1791],[121.32132,-1.17864],[121.31157,-1.17468],[121.29969,-1.17406],[121.29072,-1.17671],[121.28099,-1.18275],[121.27674,-1.17766],[121.28617,-1.16772]]],[[[121.81382,-1.43403],[121.804,-1.43892],[121.78813,-1.44213],[121.77682,-1.45222],[121.76663,-1.45607],[121.75536,-1.46338],[121.73992,-1.46751],[121.72599,-1.46141],[121.7184,-1.46109],[121.69337,-1.47134],[121.67208,-1.48655],[121.66538,-1.46245],[121.65927,-1.45021],[121.6498,-1.43796],[121.64737,-1.42647],[121.64891,-1.419],[121.66738,-1.41507],[121.68305,-1.40927],[121.70446,-1.40403],[121.716,-1.40457],[121.73661,-1.40039],[121.75271,-1.40355],[121.76019,-1.39852],[121.7656,-1.40019],[121.75972,-1.40902],[121.75807,-1.40682],[121.7481,-1.40481],[121.74619,-1.40893],[121.73622,-1.41219],[121.73286,-1.40921],[121.73639,-1.40665],[121.73593,-1.40539],[121.73133,-1.40346],[121.72673,-1.4073],[121.71935,-1.4073],[121.71282,-1.41173],[121.70924,-1.41089],[121.69868,-1.41514],[121.69117,-1.41616],[121.69205,-1.41958],[121.69612,-1.42009],[121.69615,-1.42517],[121.67916,-1.427],[121.67482,-1.42946],[121.6726,-1.43542],[121.67482,-1.45025],[121.67686,-1.45297],[121.6847,-1.45263],[121.68539,-1.45706],[121.68862,-1.45928],[121.70362,-1.4528],[121.70788,-1.45332],[121.71026,-1.45621],[121.71879,-1.4482],[121.7227,-1.44667],[121.72355,-1.44292],[121.72645,-1.44121],[121.73617,-1.4436],[121.74195,-1.44224],[121.74963,-1.45025],[121.7457,-1.45093],[121.75212,-1.4553],[121.7649,-1.45189],[121.77377,-1.4415],[121.78041,-1.43979],[121.78092,-1.43553],[121.78365,-1.43332],[121.79507,-1.43229],[121.79983,-1.42718],[121.7995,-1.42531],[121.79268,-1.42292],[121.78499,-1.40917],[121.79116,-1.41543],[121.80423,-1.42265],[121.81382,-1.43403]]]]},"properties":{"pbph":"PT WANA RINDANG LESTARI"}},{"type":"Feature","geometry":{"type":"MultiPolygon","coordinates":[[[[120.76116,-1.9526],[120.75697,-1.95141],[120.74653,-1.93629],[120.73437,-1.93205],[120.7314,-1.92916],[120.72609,-1.92212],[120.71882,-1.9065],[120.7169,-1.88141],[120.70511,-1.86874],[120.70361,-1.86436],[120.70334,-1.85304],[120.70639,-1.83959],[120.70594,-1.83246],[120.70468,-1.82932],[120.69759,-1.82751],[120.69632,-1.82122],[120.74193,-1.80243],[120.75353,-1.82207],[120.76776,-1.83217],[120.77595,-1.84068],[120.78226,-1.84982],[120.78565,-1.8586],[120.78594,-1.86991],[120.77966,-1.86874],[120.77821,-1.87043],[120.77556,-1.87927],[120.77706,-1.88302],[120.77251,-1.88852],[120.77113,-1.89586],[120.7783,-1.92001],[120.77824,-1.93213],[120.78302,-1.94604],[120.7766,-1.95051],[120.76116,-1.9526]]],[[[120.74768,-1.71331],[120.75489,-1.70727],[120.75971,-1.70038],[120.77112,-1.71381],[120.91309,-1.75061],[120.90472,-1.76178],[120.90692,-1.77008],[120.92072,-1.78979],[120.92828,-1.7973],[120.93848,-1.80169],[120.9577,-1.80541],[120.96771,-1.81658],[120.97669,-1.82129],[120.98249,-1.82891],[120.98169,-1.83172],[120.97711,-1.83368],[120.94849,-1.8363],[120.9361,-1.83892],[120.91688,-1.84601],[120.91052,-1.84601],[120.90571,-1.84851],[120.90149,-1.85773],[120.90008,-1.86712],[120.82269,-1.86499],[120.73273,-1.73437],[120.73248,-1.72711],[120.73908,-1.72729],[120.74249,-1.72491],[120.74768,-1.71331]]]]},"properties":{"pbph":"PT RIU MAMBA KARAYA SENTOSA"}},{"type":"Feature","geometry":{"type":"Polygon","coordinates":[[[122.10462,-1.57112],[122.09341,-1.57423],[122.08297,-1.5683],[122.08285,-1.56251],[122.09022,-1.56414],[122.09787,-1.56137],[122.10002,-1.55865],[122.08891,-1.54517],[122.08156,-1.54164],[122.08228,-1.53697],[122.08016,-1.53426],[122.06475,-1.53404],[122.05689,-1.53949],[122.05173,-1.53479],[122.04333,-1.53498],[122.0411,-1.53184],[122.04203,-1.52839],[122.05106,-1.52254],[122.05537,-1.52363],[122.06371,-1.52277],[122.06644,-1.52648],[122.07233,-1.52287],[122.07613,-1.5225],[122.07797,-1.52375],[122.07741,-1.52801],[122.0805,-1.52947],[122.08429,-1.52531],[122.12658,-1.51884],[122.1297,-1.5218],[122.13117,-1.51678],[122.13525,-1.51302],[122.13276,-1.51068],[122.13471,-1.50687],[122.13296,-1.5032],[122.13369,-1.50077],[122.137,-1.50135],[122.13885,-1.49714],[122.13972,-1.49858],[122.14288,-1.49829],[122.14489,-1.50284],[122.14771,-1.50154],[122.15148,-1.50247],[122.154,-1.49758],[122.15335,-1.49451],[122.15545,-1.48779],[122.16709,-1.47794],[122.20289,-1.40363],[122.20238,-1.40015],[122.20461,-1.39551],[122.20073,-1.38762],[122.23044,-1.38895],[122.23473,-1.39754],[122.24302,-1.42396],[122.23781,-1.4393],[122.23919,-1.44854],[122.22832,-1.45529],[122.23261,-1.46094],[122.22901,-1.46197],[122.22821,-1.46363],[122.23079,-1.48368],[122.22064,-1.48589],[122.21865,-1.48094],[122.21263,-1.47757],[122.2121,-1.48976],[122.21529,-1.49901],[122.20703,-1.49926],[122.20298,-1.51003],[122.20548,-1.51381],[122.19979,-1.51424],[122.18787,-1.52386],[122.17526,-1.54291],[122.1612,-1.55762],[122.15221,-1.56127],[122.14019,-1.55916],[122.1306,-1.55995],[122.10991,-1.57244],[122.10462,-1.57112]]]},"properties":{"pbph":"PT BERKAT HUTAN PUSAKA"}},{"type":"Feature","geometry":{"type":"Polygon","coordinates":[[[122.8974,0.76366],[122.9033,0.77386],[122.90745,0.77879],[122.91591,0.78424],[122.92311,0.78733],[122.92847,0.78714],[122.93464,0.78565],[122.9446,0.77685],[122.95278,0.77611],[122.95416,0.77889],[122.94861,0.80249],[122.95222,0.84139],[122.95511,0.84831],[122.96504,0.85085],[122.96958,0.85387],[122.9682,0.86074],[122.9706,0.8639],[122.97327,0.86306],[122.9743,0.86593],[122.97319,0.86835],[122.97881,0.87252],[122.97953,0.87797],[122.98298,0.88294],[122.98738,0.88487],[122.98692,0.8884],[122.99135,0.89592],[122.98747,0.90223],[122.9856,0.90158],[122.98133,0.9078],[122.97442,0.90548],[122.97631,0.913],[122.97594,0.91847],[122.97715,0.91922],[122.97613,0.92219],[122.97815,0.92413],[122.98019,0.92153],[122.99348,0.91565],[122.99302,0.91467],[122.99543,0.91387],[122.99475,0.91188],[122.99964,0.91206],[123.00595,0.91555],[123.01364,0.90706],[123.01233,0.89961],[123.01555,0.89859],[123.01552,0.89575],[123.00939,0.89419],[122.99945,0.88806],[122.99521,0.88513],[122.99434,0.8825],[123.0009,0.87953],[123.00213,0.87512],[123.00713,0.87422],[123.00809,0.87152],[123.01086,0.87227],[123.01264,0.8703],[123.01172,0.86724],[123.01447,0.86457],[123.0155,0.86418],[123.01799,0.8703],[123.02353,0.87086],[123.02518,0.87763],[123.02887,0.87708],[123.03523,0.8794],[123.03744,0.87671],[123.04039,0.87634],[123.04233,0.88116],[123.04868,0.88394],[123.05035,0.88626],[123.04906,0.89119],[123.05302,0.89768],[123.05856,0.89889],[123.05902,0.90084],[123.06326,0.90027],[123.06773,0.9025],[123.06951,0.89903],[123.07741,0.89347],[123.07799,0.88967],[123.08704,0.87968],[123.08954,0.8806],[123.08788,0.88599],[123.08957,0.88612],[123.09876,0.88032],[123.10226,0.87512],[123.11527,0.87726],[123.11205,0.87114],[123.10792,0.86933],[123.10496,0.87359],[123.1046,0.87027],[123.10263,0.86883],[123.10471,0.86094],[123.10765,0.86061],[123.10936,0.85499],[123.11178,0.85768],[123.11213,0.8625],[123.11785,0.86085],[123.12023,0.86111],[123.12245,0.86362],[123.13291,0.86056],[123.14296,0.86333],[123.14357,0.86029],[123.14583,0.86077],[123.14753,0.85619],[123.15011,0.85684],[123.15194,0.855],[123.16,0.78334],[123.14464,0.79677],[123.1274,0.80732],[123.11319,0.80861],[123.10332,0.80679],[123.10162,0.80435],[123.09138,0.80074],[123.08384,0.80548],[123.07296,0.80603],[123.05417,0.7925],[123.04444,0.78778],[123.03834,0.78695],[123.03278,0.79029],[123.02861,0.79611],[123.02389,0.79861],[123.01529,0.80944],[123.01472,0.81555],[123.00973,0.82001],[123.00111,0.77305],[122.99611,0.76694],[122.99277,0.76833],[122.98917,0.76277],[122.98555,0.76222],[122.98139,0.75806],[122.97944,0.74806],[122.97555,0.74417],[122.97833,0.73944],[122.97612,0.73583],[122.9811,0.73194],[122.97361,0.72362],[122.96888,0.72167],[122.9675,0.71806],[122.94249,0.71306],[122.94,0.71334],[122.93529,0.71778],[122.93277,0.71334],[122.92971,0.71277],[122.93028,0.70583],[122.92806,0.6975],[122.92,0.69194],[122.91444,0.69833],[122.90528,0.70222],[122.90833,0.71362],[122.90277,0.7164],[122.90472,0.71944],[122.90334,0.72444],[122.9061,0.725],[122.90723,0.73028],[122.89778,0.73778],[122.89243,0.74878],[122.8974,0.76366]]]},"properties":{"pbph":"PT GEMA NUSANTARA JAYA"}},{"type":"Feature","geometry":{"type":"Polygon","coordinates":[[[121.89652,-1.08933],[121.89161,-1.08674],[121.88959,-1.0794],[121.888,-1.07662],[121.88562,-1.07635],[121.88353,-1.07205],[121.87552,-1.07238],[121.87589,-1.0668],[121.87382,-1.06455],[121.87127,-1.0644],[121.86911,-1.06138],[121.87046,-1.05724],[121.86723,-1.05275],[121.86845,-1.04658],[121.85995,-1.03313],[121.86207,-1.02705],[121.86468,-1.02808],[121.86538,-1.02651],[121.87777,-1.02443],[121.88027,-1.00833],[121.93738,-1.01535],[121.9529,-1.02186],[121.96907,-1.01412],[121.97,-1.01758],[121.9716,-1.0182],[121.97368,-1.01622],[121.97358,-1.01223],[121.98324,-1.0076],[122.00303,-1.00681],[122.01174,-0.99711],[122.01635,-0.99883],[122.01831,-0.99291],[122.01696,-0.9918],[122.01709,-0.98748],[122.01868,-0.98624],[122.01881,-0.9881],[122.02077,-0.98871],[122.02189,-0.98478],[122.02555,-0.98192],[122.0229,-0.97903],[122.02335,-0.97723],[122.02641,-0.97464],[122.02605,-0.97205],[122.02911,-0.97266],[122.02837,-0.96958],[122.02973,-0.96921],[122.04003,-0.97526],[122.09761,-0.97955],[122.10331,-0.97721],[122.10614,-0.97892],[122.10855,-0.97582],[122.10929,-0.97745],[122.11228,-0.97705],[122.11309,-0.97542],[122.11615,-0.98441],[122.13329,-0.99048],[122.16018,-0.9905],[122.1842,-0.99267],[122.19248,-0.98283],[122.22714,-0.97388],[122.24226,-0.96302],[122.26379,-0.95603],[122.27593,-0.94744],[122.28263,-0.94065],[122.2857,-0.93606],[122.28709,-0.92919],[122.29476,-0.92392],[122.29474,-0.91354],[122.30359,-0.90674],[122.30322,-0.89877],[122.29801,-0.89011],[122.2996,-0.88507],[122.31536,-0.86794],[122.32294,-0.8549],[122.3246,-0.84572],[122.32271,-0.83191],[122.33876,-0.83058],[122.34778,-0.82701],[122.35441,-0.82821],[122.35513,-0.82719],[122.35848,-0.83033],[122.36382,-0.83183],[122.37808,-0.84018],[122.38384,-0.83539],[122.38904,-0.83976],[122.39698,-0.8397],[122.40184,-0.83701],[122.39975,-0.82958],[122.41329,-0.81657],[122.41937,-0.81599],[122.42265,-0.81656],[122.42887,-0.82327],[122.44144,-0.81935],[122.44932,-0.82161],[122.44631,-0.83147],[122.45074,-0.83858],[122.45883,-0.83063],[122.4593,-0.8268],[122.47267,-0.82512],[122.47579,-0.82675],[122.47542,-0.82936],[122.48706,-0.828],[122.51973,-0.8507],[122.52172,-0.85287],[122.5222,-0.85758],[122.5269,-0.86027],[122.52377,-0.86503],[122.52269,-0.87063],[122.52423,-0.87615],[122.52873,-0.88251],[122.51652,-0.88908],[122.48112,-0.89256],[122.47667,-0.89482],[122.47291,-0.89306],[122.46864,-0.88075],[122.45987,-0.88412],[122.45237,-0.88271],[122.44655,-0.87779],[122.43477,-0.88328],[122.43129,-0.88654],[122.41783,-0.88492],[122.41118,-0.89],[122.41324,-0.89706],[122.40572,-0.89812],[122.36235,-0.86568],[122.35489,-0.86362],[122.34837,-0.8696],[122.35054,-0.8775],[122.33543,-0.87787],[122.33581,-0.88058],[122.34026,-0.88433],[122.33133,-0.88787],[122.32197,-0.89614],[122.32482,-0.90334],[122.32425,-0.90632],[122.3201,-0.91111],[122.32621,-0.92289],[122.31782,-0.93461],[122.3201,-0.93991],[122.33194,-0.93586],[122.33905,-0.929],[122.35002,-0.94111],[122.34059,-0.95762],[122.33232,-0.96613],[122.32391,-0.97123],[122.31926,-0.97766],[122.31637,-0.97487],[122.31183,-0.97765],[122.30947,-0.97522],[122.3076,-0.97726],[122.30317,-0.97576],[122.30313,-0.97913],[122.30703,-0.98367],[122.30622,-0.98903],[122.28961,-0.99626],[122.28766,-0.98931],[122.2742,-0.99074],[122.25943,-0.98392],[122.25569,-0.97768],[122.23458,-0.97979],[122.22852,-0.98213],[122.21189,-0.99475],[122.21411,-1.00042],[122.21644,-1.00222],[122.23055,-1.00394],[122.23377,-1.00306],[122.23498,-1.0002],[122.23841,-1.00149],[122.23988,-1.00327],[122.23929,-1.01124],[122.24435,-1.01316],[122.24317,-1.01826],[122.07374,-1.07028],[122.07309,-1.06631],[122.06945,-1.06534],[122.0628,-1.05725],[122.06269,-1.03555],[122.05691,-1.03027],[122.04863,-1.0304],[122.04378,-1.03658],[122.0252,-1.04003],[122.02064,-1.0457],[122.02128,-1.05271],[122.02473,-1.05941],[122.0231,-1.06634],[122.02429,-1.07167],[122.03516,-1.08551],[121.90333,-1.08431],[121.90261,-1.08871],[121.89652,-1.08933]]]},"properties":{"pbph":"PT DAHA TAMA ADI KARYA"}},{"type":"Feature","geometry":{"type":"MultiPolygon","coordinates":[[[[122.89778,0.73778],[122.90723,0.73028],[122.9061,0.725],[122.90334,0.72444],[122.90472,0.71944],[122.90277,0.7164],[122.90833,0.71362],[122.90528,0.70222],[122.91444,0.69833],[122.92,0.69194],[122.92806,0.6975],[122.93028,0.70583],[122.92971,0.71277],[122.93277,0.71334],[122.93529,0.71778],[122.94,0.71334],[122.94249,0.71306],[122.9675,0.71806],[122.96888,0.72167],[122.97361,0.72362],[122.9811,0.73194],[122.97612,0.73583],[122.97833,0.73944],[122.97555,0.74417],[122.97944,0.74806],[122.98139,0.75806],[122.98555,0.76222],[122.98917,0.76277],[122.99277,0.76833],[122.99611,0.76694],[123.00111,0.77305],[123.00973,0.82001],[123.01472,0.81555],[123.01529,0.80944],[123.02389,0.79861],[123.02861,0.79611],[123.03278,0.79029],[123.03834,0.78695],[123.04444,0.78778],[123.05417,0.7925],[123.06966,0.80383],[123.06999,0.7981],[123.06659,0.79194],[123.07016,0.78237],[123.05625,0.78228],[123.04073,0.78597],[123.01818,0.77356],[123.01192,0.76764],[123.00752,0.76032],[123.00444,0.74932],[123.00618,0.74762],[123.00631,0.74095],[123.00267,0.73976],[123.00039,0.73408],[123.00308,0.73355],[123.00269,0.73019],[122.9975,0.72671],[122.99986,0.71926],[122.99762,0.71843],[122.99398,0.72257],[122.99232,0.7174],[122.9948,0.71567],[122.9923,0.71234],[122.99046,0.71222],[122.9896,0.7091],[122.992,0.70734],[122.99165,0.70496],[122.98626,0.7027],[122.98151,0.69396],[122.97737,0.69166],[122.96744,0.69107],[122.96608,0.68586],[122.95997,0.68224],[122.95547,0.68253],[122.94395,0.68803],[122.9433,0.68589],[122.94061,0.68461],[122.94014,0.68911],[122.93547,0.69152],[122.9321,0.6955],[122.92874,0.6932],[122.93056,0.69011],[122.92847,0.68562],[122.92462,0.68464],[122.92152,0.68729],[122.91984,0.68513],[122.91571,0.68798],[122.90673,0.68562],[122.90297,0.67981],[122.90406,0.67676],[122.90902,0.67225],[122.90852,0.67135],[122.90695,0.67308],[122.9057,0.6711],[122.90613,0.66586],[122.91028,0.65892],[122.90741,0.65617],[122.90185,0.65631],[122.90034,0.65794],[122.89698,0.65624],[122.88831,0.65889],[122.89005,0.66343],[122.88703,0.66544],[122.88618,0.66381],[122.88482,0.66452],[122.88851,0.66871],[122.88594,0.66726],[122.88531,0.66972],[122.88278,0.6709],[122.87839,0.66267],[122.87401,0.66711],[122.85939,0.66795],[122.85691,0.66847],[122.85677,0.67064],[122.8555,0.66824],[122.85151,0.66778],[122.85009,0.66974],[122.84655,0.66884],[122.8449,0.67122],[122.84189,0.67076],[122.84124,0.6684],[122.83565,0.67121],[122.83255,0.66943],[122.83302,0.66739],[122.82942,0.66685],[122.82875,0.67158],[122.83164,0.67482],[122.8531,0.68141],[122.86142,0.69146],[122.87441,0.69588],[122.8792,0.70062],[122.88258,0.70654],[122.88469,0.71617],[122.88614,0.73966],[122.89243,0.74878],[122.89778,0.73778]]],[[[122.43977,0.7896],[122.42982,0.79201],[122.42737,0.78907],[122.42534,0.78992],[122.42443,0.78858],[122.42534,0.7853],[122.42299,0.78578],[122.41866,0.78121],[122.42421,0.79554],[122.44298,0.79559],[122.44271,0.79206],[122.43977,0.7896]]],[[[122.44867,0.79046],[122.44617,0.79557],[122.46563,0.79587],[122.46092,0.78177],[122.44867,0.79046]]],[[[122.49969,0.78999],[122.49358,0.78554],[122.49307,0.78844],[122.48989,0.78805],[122.48809,0.79006],[122.48609,0.78867],[122.48327,0.7893],[122.48083,0.79206],[122.48015,0.78921],[122.47724,0.78855],[122.47729,0.79046],[122.47212,0.79213],[122.46885,0.79582],[122.47663,0.79583],[122.48901,0.7986],[122.46451,0.8098],[122.47754,0.81267],[122.49193,0.81275],[122.52742,0.8178],[122.52915,0.82146],[122.52823,0.82846],[122.52097,0.83413],[122.51577,0.83601],[122.51126,0.84219],[122.50879,0.84324],[122.51625,0.84735],[122.53828,0.85486],[122.54679,0.85411],[122.56206,0.84359],[122.57115,0.81471],[122.57747,0.81255],[122.58445,0.81251],[122.5983,0.81655],[122.61492,0.81603],[122.62225,0.82325],[122.62381,0.83349],[122.62059,0.83978],[122.61933,0.86549],[122.61057,0.87413],[122.58702,0.88561],[122.57397,0.88732],[122.56036,0.89151],[122.54299,0.9037],[122.52287,0.91225],[122.51408,0.91367],[122.49962,0.92514],[122.48991,0.92989],[122.48725,0.93359],[122.5347,0.93483],[122.54229,0.93261],[122.55322,0.93295],[122.56291,0.92919],[122.5675,0.93],[122.56762,0.93228],[122.57408,0.93583],[122.57944,0.93397],[122.58641,0.92502],[122.58939,0.92831],[122.5889,0.93463],[122.59158,0.93687],[122.598,0.93041],[122.59995,0.93259],[122.60288,0.93273],[122.61406,0.93016],[122.61816,0.93063],[122.62135,0.92752],[122.62817,0.91656],[122.62605,0.9133],[122.6316,0.91165],[122.63715,0.90239],[122.65169,0.89102],[122.66016,0.87984],[122.65559,0.87306],[122.65569,0.87006],[122.6514,0.86013],[122.65242,0.85407],[122.65359,0.85308],[122.65803,0.85617],[122.66187,0.85665],[122.67142,0.85004],[122.67253,0.85084],[122.67672,0.84385],[122.6805,0.84809],[122.68348,0.84688],[122.68665,0.84366],[122.68348,0.84062],[122.69423,0.83548],[122.69109,0.83462],[122.69522,0.82385],[122.69735,0.82331],[122.69858,0.82472],[122.69766,0.82731],[122.70029,0.82875],[122.70035,0.83296],[122.72203,0.83699],[122.72465,0.834],[122.72218,0.83176],[122.72395,0.83046],[122.72456,0.82643],[122.7267,0.82623],[122.72742,0.82906],[122.73054,0.83068],[122.73287,0.82974],[122.73121,0.82857],[122.72999,0.82299],[122.73556,0.827],[122.73939,0.82692],[122.73943,0.82894],[122.74216,0.82965],[122.74176,0.82822],[122.74507,0.8263],[122.74723,0.82211],[122.74879,0.82482],[122.75112,0.82492],[122.75214,0.82302],[122.75753,0.82547],[122.76159,0.82344],[122.76084,0.82064],[122.76312,0.8217],[122.76679,0.81786],[122.76951,0.81804],[122.77164,0.82064],[122.77701,0.82013],[122.77997,0.81663],[122.79154,0.81326],[122.78404,0.8065],[122.78531,0.80282],[122.79455,0.80283],[122.79519,0.80069],[122.80137,0.7981],[122.80471,0.79455],[122.80289,0.792],[122.79883,0.79096],[122.80268,0.78185],[122.80236,0.77764],[122.8096,0.773],[122.81189,0.76731],[122.81103,0.76413],[122.81354,0.75944],[122.81737,0.75635],[122.82144,0.75566],[122.82628,0.75007],[122.82827,0.74506],[122.83316,0.74365],[122.836,0.73462],[122.83452,0.73223],[122.83057,0.73697],[122.82462,0.73442],[122.82038,0.73568],[122.81811,0.73211],[122.81889,0.72762],[122.81476,0.73108],[122.80928,0.73298],[122.80227,0.73209],[122.80042,0.73325],[122.79988,0.73198],[122.79546,0.73174],[122.79529,0.72877],[122.79018,0.72606],[122.7934,0.72486],[122.79266,0.72285],[122.79404,0.72121],[122.78271,0.71411],[122.78398,0.71217],[122.78187,0.71069],[122.78333,0.70748],[122.78232,0.70614],[122.77383,0.71209],[122.77067,0.71241],[122.76822,0.71072],[122.76172,0.72165],[122.75827,0.72254],[122.75385,0.73885],[122.74911,0.74453],[122.74245,0.74805],[122.73309,0.74728],[122.72021,0.74231],[122.71479,0.73537],[122.71402,0.73151],[122.71667,0.72014],[122.72902,0.70893],[122.73146,0.70487],[122.73122,0.70221],[122.7156,0.71469],[122.70543,0.71788],[122.69741,0.72504],[122.68827,0.72718],[122.6869,0.72955],[122.68417,0.73018],[122.68148,0.72818],[122.67931,0.72863],[122.67454,0.73823],[122.68072,0.74347],[122.67904,0.74677],[122.68187,0.75075],[122.68094,0.75518],[122.67809,0.75788],[122.67517,0.75744],[122.67283,0.75911],[122.67293,0.75663],[122.67868,0.75471],[122.67889,0.75255],[122.67757,0.75102],[122.67583,0.75299],[122.67176,0.75388],[122.67051,0.7505],[122.6667,0.74988],[122.6633,0.75306],[122.66454,0.75879],[122.66337,0.76223],[122.65392,0.7691],[122.65293,0.76271],[122.65609,0.75854],[122.65331,0.75456],[122.65705,0.74924],[122.65575,0.74833],[122.65135,0.752],[122.648,0.74804],[122.64654,0.7509],[122.64104,0.75052],[122.63481,0.75931],[122.62781,0.75782],[122.62539,0.76971],[122.62291,0.76771],[122.61764,0.77208],[122.61437,0.77274],[122.61038,0.77125],[122.60868,0.77264],[122.60949,0.77467],[122.6073,0.77589],[122.60664,0.78105],[122.60239,0.77844],[122.59717,0.78267],[122.59026,0.78347],[122.58379,0.78947],[122.58285,0.78557],[122.58025,0.78299],[122.5713,0.78673],[122.56942,0.79345],[122.5672,0.79256],[122.57013,0.78644],[122.56832,0.78422],[122.56031,0.78611],[122.55693,0.77952],[122.55041,0.77529],[122.54975,0.78006],[122.54694,0.77907],[122.54391,0.78155],[122.54,0.78089],[122.53941,0.78269],[122.53538,0.78013],[122.53491,0.78419],[122.52709,0.78104],[122.52683,0.78616],[122.51956,0.78941],[122.51762,0.78762],[122.51636,0.78894],[122.51295,0.78512],[122.51055,0.78724],[122.50711,0.7869],[122.50717,0.78375],[122.50454,0.78311],[122.50365,0.78025],[122.50144,0.78168],[122.49969,0.78999]],[[122.76583,0.74868],[122.76856,0.74484],[122.7798,0.74063],[122.78563,0.74028],[122.79206,0.74268],[122.7909,0.75074],[122.79768,0.75249],[122.79727,0.758],[122.79397,0.76168],[122.78838,0.75993],[122.78743,0.75725],[122.77098,0.75996],[122.76655,0.75499],[122.76583,0.74868]]]]},"properties":{"pbph":"PT GORONTALO CITRA LESTARI"}},{"type":"Feature","geometry":{"type":"MultiPolygon","coordinates":[[[[121.79073,-1.39957],[121.7807,-1.39001],[121.72248,-1.38385],[121.69009,-1.39825],[121.64606,-1.39377],[121.64629,-1.36482],[121.64312,-1.35286],[121.64457,-1.34785],[121.73811,-1.29528],[121.76784,-1.28431],[121.78727,-1.29283],[121.79343,-1.29658],[121.79435,-1.2998],[121.78319,-1.30764],[121.78005,-1.31205],[121.78148,-1.3165],[121.79143,-1.32569],[121.7992,-1.32794],[121.81008,-1.34379],[121.8204,-1.35222],[121.82536,-1.35147],[121.83455,-1.34428],[121.84072,-1.34575],[121.85491,-1.33617],[121.85844,-1.33619],[121.85254,-1.3529],[121.85209,-1.36061],[121.8525,-1.38225],[121.85598,-1.40174],[121.88721,-1.45115],[121.88002,-1.45117],[121.87632,-1.45415],[121.8776,-1.46035],[121.88386,-1.46629],[121.88515,-1.47324],[121.87804,-1.48319],[121.87588,-1.49216],[121.87221,-1.49815],[121.86112,-1.50514],[121.85019,-1.50316],[121.84345,-1.49845],[121.83943,-1.49373],[121.83688,-1.48655],[121.83828,-1.47685],[121.84436,-1.46195],[121.83904,-1.44388],[121.83555,-1.43919],[121.82908,-1.43525],[121.808,-1.42699],[121.79073,-1.39957]],[[121.71171,-1.34921],[121.69838,-1.36136],[121.69738,-1.36681],[121.69939,-1.37548],[121.70398,-1.37809],[121.73709,-1.37239],[121.76188,-1.37098],[121.76966,-1.36737],[121.77686,-1.35912],[121.77707,-1.3505],[121.77267,-1.34446],[121.75201,-1.33636],[121.744,-1.32768],[121.7366,-1.32323],[121.72803,-1.32321],[121.71171,-1.34921]]],[[[121.76882,-1.5911],[121.75665,-1.59041],[121.75068,-1.58501],[121.74721,-1.58578],[121.74424,-1.58925],[121.71492,-1.55396],[121.72894,-1.53305],[121.77861,-1.54226],[121.76799,-1.55111],[121.76303,-1.5504],[121.74918,-1.54364],[121.74119,-1.5518],[121.74169,-1.55474],[121.74863,-1.55864],[121.74716,-1.56875],[121.75561,-1.56943],[121.75859,-1.57213],[121.76281,-1.56914],[121.77348,-1.56834],[121.77844,-1.56239],[121.78612,-1.56113],[121.78859,-1.55571],[121.7851,-1.55154],[121.7838,-1.54447],[121.79188,-1.54609],[121.79766,-1.54523],[121.80668,-1.53599],[121.81043,-1.52746],[121.82767,-1.51214],[121.82862,-1.52911],[121.83456,-1.53262],[121.85014,-1.53368],[121.8645,-1.53083],[121.86725,-1.53144],[121.86927,-1.53549],[121.87671,-1.53759],[121.87352,-1.54522],[121.86265,-1.5518],[121.84122,-1.57777],[121.83579,-1.58103],[121.8276,-1.58183],[121.81648,-1.58676],[121.80435,-1.59466],[121.79243,-1.59569],[121.78995,-1.59793],[121.77198,-1.60171],[121.76882,-1.5911]]],[[[121.94589,-1.24273],[121.95927,-1.22722],[121.96804,-1.20408],[121.96908,-1.1805],[121.97979,-1.18914],[121.99543,-1.19458],[122.00306,-1.20051],[122.00698,-1.20104],[122.01363,-1.20719],[122.02227,-1.21115],[122.02841,-1.20851],[122.02666,-1.19701],[122.02078,-1.18811],[122.02164,-1.18549],[122.02352,-1.18385],[122.03419,-1.18584],[122.03624,-1.17843],[122.04756,-1.18404],[122.05204,-1.18252],[122.05282,-1.17869],[122.04673,-1.16229],[122.05896,-1.16162],[122.07493,-1.16738],[122.08699,-1.18078],[122.09583,-1.18396],[122.11211,-1.1867],[122.12902,-1.18517],[122.14309,-1.18832],[122.16108,-1.20116],[122.16831,-1.2046],[122.18724,-1.20192],[122.18744,-1.19879],[122.1802,-1.19067],[122.1665,-1.18026],[122.15751,-1.17549],[122.1444,-1.17214],[122.13931,-1.16928],[122.1352,-1.16544],[122.13086,-1.1575],[122.12636,-1.15697],[122.12265,-1.1584],[122.11837,-1.15728],[122.11542,-1.15479],[122.11319,-1.14641],[122.11026,-1.1447],[122.10528,-1.14928],[122.09887,-1.14724],[122.09727,-1.14315],[122.09984,-1.13162],[122.09939,-1.12733],[122.08038,-1.12312],[122.07491,-1.11929],[122.07293,-1.1158],[122.08038,-1.10557],[122.08877,-1.11024],[122.09695,-1.10796],[122.10743,-1.11314],[122.11056,-1.11205],[122.12173,-1.11707],[122.12929,-1.11716],[122.13267,-1.12256],[122.13702,-1.12024],[122.14091,-1.12247],[122.14627,-1.12066],[122.15095,-1.12399],[122.15451,-1.12267],[122.15624,-1.1236],[122.15674,-1.12222],[122.16136,-1.1231],[122.16377,-1.12644],[122.17021,-1.12299],[122.17587,-1.12728],[122.18712,-1.12719],[122.18834,-1.13066],[122.19811,-1.12699],[122.20755,-1.13007],[122.21699,-1.12782],[122.23156,-1.12845],[122.23402,-1.13078],[122.23827,-1.1293],[122.24155,-1.13099],[122.24718,-1.13053],[122.25126,-1.13306],[122.26381,-1.13078],[122.27369,-1.13331],[122.27611,-1.13211],[122.28354,-1.14245],[122.29932,-1.14068],[122.33123,-1.14063],[122.36012,-1.1323],[122.38383,-1.11229],[122.39066,-1.11069],[122.41452,-1.09204],[122.41992,-1.08889],[122.43889,-1.08559],[122.45675,-1.07634],[122.47067,-1.06508],[122.48203,-1.05908],[122.47953,-1.07695],[122.47856,-1.07532],[122.47119,-1.07881],[122.44013,-1.10578],[122.39206,-1.13659],[122.38208,-1.14727],[122.36366,-1.16932],[122.34512,-1.21925],[122.2975,-1.26485],[122.29327,-1.26821],[122.21991,-1.29716],[122.20948,-1.29371],[122.21476,-1.28162],[122.21091,-1.26704],[122.19267,-1.26292],[122.15956,-1.27692],[122.1427,-1.27853],[122.13133,-1.28463],[122.11519,-1.28746],[122.10933,-1.29086],[122.1012,-1.3096],[122.09792,-1.31272],[122.09151,-1.31353],[122.0785,-1.31105],[122.0839,-1.29175],[122.0833,-1.28299],[122.07728,-1.27385],[122.06553,-1.26718],[122.05889,-1.2556],[122.05283,-1.25367],[122.0221,-1.26153],[122.01301,-1.27081],[122.00888,-1.27823],[121.92374,-1.27937],[121.91529,-1.2603],[121.94589,-1.24273]]]]},"properties":{"pbph":"PT BINA BALANTAK RAYA"}},{"type":"Feature","geometry":{"type":"MultiPolygon","coordinates":[[[[119.95481,-0.02274],[119.94431,-0.01995],[119.9336,-0.02234],[119.9146,-0.01746],[119.91565,0.0122],[119.92279,0.04666],[119.91961,0.05284],[119.92903,0.05322],[119.92987,0.04842],[119.93591,0.03721],[119.9471,0.03058],[119.95973,0.0278],[119.96527,0.022],[119.96909,0.02244],[119.97063,0.01555],[119.9722,0.01425],[119.97698,0.01416],[119.98226,0.02035],[119.99022,0.02274],[119.99036,0.02571],[119.99271,0.02392],[120.00451,0.02837],[120.0104,0.02553],[120.01223,0.03015],[120.01815,0.03093],[120.02199,0.03085],[120.02459,0.02649],[120.0269,0.02602],[120.02664,0.02814],[120.03113,0.03102],[120.03222,0.03395],[120.0378,0.03886],[120.04307,0.05154],[120.0466,0.05154],[120.05648,0.05868],[120.05301,0.07136],[120.05439,0.07328],[120.05766,0.07363],[120.05736,0.07768],[120.06001,0.08326],[120.06537,0.08491],[120.06834,0.08391],[120.07613,0.07336],[120.07618,0.06826],[120.07447,0.06487],[120.07844,0.06243],[120.0791,0.05533],[120.07255,0.04526],[120.06403,0.02575],[120.06188,0.02514],[120.06101,0.02118],[120.05744,0.01795],[120.05526,0.00462],[120.04913,-0.00034],[120.03823,-0.00266],[120.03362,-0.0074],[120.03305,-0.0118],[120.0273,-0.01337],[120.02747,-0.01585],[120.02372,-0.01541],[120.02089,-0.01969],[119.95481,-0.02274]]],[[[119.96565,0.14644],[119.95564,0.15231],[119.95742,0.1613],[119.95568,0.17463],[119.95726,0.18804],[119.97075,0.21861],[119.96927,0.24949],[119.96744,0.25829],[119.96365,0.26451],[119.96641,0.27354],[119.97017,0.33298],[119.97442,0.33967],[119.9748,0.34639],[119.98464,0.35738],[120.01986,0.38788],[120.04064,0.4015],[120.04314,0.40563],[120.04558,0.41743],[120.04829,0.41908],[120.0649,0.41972],[120.07015,0.41674],[120.07457,0.40682],[120.07223,0.40081],[120.06294,0.39077],[120.06236,0.38707],[120.05681,0.37858],[120.05707,0.3719],[120.05554,0.36794],[120.05724,0.3585],[120.05587,0.355],[120.05834,0.35065],[120.05418,0.33661],[120.05536,0.33022],[120.05162,0.3234],[120.05115,0.31701],[120.05503,0.3082],[120.06222,0.30169],[120.06588,0.29321],[120.06826,0.29168],[120.06959,0.28644],[120.06525,0.27895],[120.0632,0.26971],[120.06555,0.26256],[120.06964,0.2586],[120.07852,0.25863],[120.08266,0.24723],[120.09007,0.23773],[120.09441,0.22746],[120.07955,0.22572],[120.07308,0.21997],[120.06534,0.18501],[120.05963,0.14571],[120.05455,0.13626],[120.04238,0.12374],[120.03586,0.11428],[120.03391,0.11394],[120.03676,0.12114],[120.03629,0.12446],[120.03322,0.12727],[120.02169,0.1309],[120.00925,0.14818],[120.00708,0.14916],[119.99976,0.14924],[119.99439,0.14307],[119.98554,0.14179],[119.97842,0.13651],[119.97493,0.13752],[119.96565,0.14644]]]]},"properties":{"pbph":"PT TAMAN HUTAN ASRI"}},{"type":"Feature","geometry":{"type":"MultiPolygon","coordinates":[[[[120.32109,0.65219],[120.31799,0.64386],[120.31307,0.6371],[120.30553,0.63163],[120.29689,0.62864],[120.28349,0.63],[120.27487,0.62914],[120.26946,0.63029],[120.23412,0.64903],[120.21405,0.64784],[120.20171,0.65015],[120.17311,0.66581],[120.18991,0.67402],[120.26097,0.70074],[120.29334,0.70893],[120.29377,0.72492],[120.29987,0.73659],[120.30153,0.75001],[120.31325,0.74848],[120.33112,0.75102],[120.33979,0.76304],[120.34606,0.76347],[120.34177,0.77444],[120.34762,0.78682],[120.35941,0.79494],[120.36923,0.79765],[120.38045,0.79688],[120.38827,0.79984],[120.39464,0.79285],[120.40339,0.78891],[120.40395,0.77971],[120.40194,0.77707],[120.3907,0.78359],[120.38829,0.7701],[120.37082,0.77463],[120.36016,0.77305],[120.35731,0.77104],[120.3528,0.75941],[120.34936,0.74042],[120.34412,0.73043],[120.32387,0.71357],[120.31023,0.70707],[120.30419,0.70127],[120.30292,0.69835],[120.30376,0.69185],[120.31983,0.67413],[120.32181,0.66672],[120.32109,0.65219]]],[[[120.66627,0.65598],[120.67499,0.67932],[120.65459,0.69562],[120.65843,0.69761],[120.6689,0.69481],[120.67071,0.69779],[120.67213,0.71051],[120.66938,0.71671],[120.66347,0.72176],[120.66501,0.72773],[120.66849,0.73074],[120.67385,0.73106],[120.67933,0.72997],[120.68344,0.72672],[120.68528,0.72387],[120.68562,0.7188],[120.68217,0.70018],[120.68353,0.6977],[120.68616,0.69687],[120.68971,0.69696],[120.69356,0.7006],[120.70024,0.71464],[120.70602,0.72228],[120.70774,0.72285],[120.71299,0.71859],[120.71583,0.71851],[120.70907,0.7337],[120.7059,0.73877],[120.69763,0.74581],[120.69497,0.75372],[120.6808,0.76094],[120.67971,0.76508],[120.68293,0.77148],[120.68088,0.77845],[120.6839,0.77996],[120.69177,0.77812],[120.69435,0.77246],[120.69637,0.77143],[120.69636,0.78061],[120.70061,0.78148],[120.70559,0.77749],[120.70622,0.78689],[120.7119,0.79078],[120.71916,0.78863],[120.73135,0.77952],[120.73257,0.77998],[120.73484,0.78355],[120.73068,0.79842],[120.73089,0.80941],[120.73465,0.81303],[120.73732,0.81245],[120.73935,0.81569],[120.74079,0.81436],[120.74102,0.81615],[120.74358,0.81714],[120.74824,0.81722],[120.74957,0.81938],[120.74759,0.82132],[120.75263,0.82626],[120.75263,0.82422],[120.75354,0.82475],[120.75959,0.81576],[120.76768,0.80164],[120.76922,0.79418],[120.76391,0.77984],[120.75577,0.76417],[120.75414,0.75635],[120.75663,0.7537],[120.76047,0.7544],[120.77676,0.76964],[120.77993,0.77173],[120.78355,0.77111],[120.76909,0.7571],[120.75015,0.73343],[120.73102,0.68686],[120.71883,0.66849],[120.69825,0.64875],[120.6598,0.62289],[120.66627,0.65598]]],[[[120.79672,0.79569],[120.80015,0.80833],[120.79819,0.81136],[120.78788,0.81467],[120.78469,0.81875],[120.79104,0.83086],[120.79543,0.83382],[120.81295,0.82981],[120.81957,0.83187],[120.82254,0.84007],[120.82897,0.84395],[120.83515,0.84372],[120.83761,0.8461],[120.83976,0.85329],[120.83903,0.86123],[120.84056,0.86429],[120.84544,0.86788],[120.84675,0.86566],[120.84943,0.86566],[120.84721,0.86359],[120.85196,0.86353],[120.85176,0.86158],[120.85645,0.8609],[120.85864,0.86216],[120.86032,0.85704],[120.86819,0.84961],[120.87638,0.84737],[120.90574,0.84862],[120.92214,0.84584],[120.92751,0.84833],[120.93406,0.85444],[120.94122,0.84637],[120.94409,0.85074],[120.94469,0.85585],[120.93837,0.86472],[120.93822,0.87074],[120.94039,0.87404],[120.94537,0.87066],[120.96683,0.87573],[120.97695,0.87265],[120.98635,0.8722],[120.99618,0.87488],[120.99397,0.88218],[120.99842,0.885],[120.99472,0.93683],[121.00741,0.93895],[121.01963,0.93645],[121.03411,0.93714],[121.03486,0.93379],[121.03038,0.91696],[121.03005,0.90459],[121.03392,0.88957],[121.04137,0.88441],[121.04956,0.88162],[121.05931,0.88333],[121.05618,0.87187],[121.05646,0.8633],[121.05074,0.85476],[121.03048,0.8447],[121.02944,0.83344],[120.99753,0.8354],[120.97703,0.81177],[120.93861,0.77591],[120.93467,0.79707],[120.92601,0.81449],[120.92008,0.81792],[120.89518,0.82237],[120.91324,0.82769],[120.91442,0.8372],[120.85481,0.8408],[120.83007,0.81583],[120.85762,0.8199],[120.84236,0.80593],[120.83163,0.80263],[120.81122,0.78589],[120.79575,0.78015],[120.79842,0.7865],[120.79672,0.79569]]]]},"properties":{"pbph":"PT SENTRAL PITULEMPA"}},{"type":"Feature","geometry":{"type":"MultiPolygon","coordinates":[[[[120.86652,-1.8819],[120.86743,-1.88368],[120.86874,-1.8825],[120.87038,-1.88487],[120.8721,-1.88392],[120.86955,-1.88779],[120.86811,-1.88674],[120.86498,-1.88779],[120.86416,-1.88577],[120.8604,-1.88522],[120.85489,-1.88111],[120.85375,-1.87763],[120.85732,-1.87997],[120.85932,-1.87834],[120.86444,-1.8824],[120.86652,-1.8819]]],[[[120.90567,-1.88077],[120.90369,-1.88015],[120.90528,-1.87994],[120.90586,-1.87779],[120.9068,-1.87779],[120.90567,-1.88077]]],[[[120.90244,-1.87842],[120.90342,-1.8786],[120.90331,-1.87994],[120.90289,-1.87877],[120.90175,-1.87959],[120.90244,-1.87842]]],[[[120.8997,-1.87841],[120.89946,-1.87683],[120.90035,-1.87631],[120.90089,-1.87925],[120.8997,-1.87841]]],[[[120.90306,-1.87261],[120.90334,-1.8726],[120.90269,-1.87276],[120.90306,-1.87261]]],[[[120.90359,-1.87188],[120.90376,-1.87187],[120.9034,-1.87244],[120.90359,-1.87188]]],[[[120.89861,-1.88072],[120.89553,-1.87649],[120.89503,-1.87848],[120.8925,-1.87879],[120.8952,-1.8758],[120.89485,-1.87221],[120.88486,-1.86681],[120.90011,-1.86697],[120.89975,-1.8697],[120.90091,-1.87019],[120.90334,-1.86577],[120.90735,-1.86292],[120.9072,-1.86934],[120.90365,-1.86943],[120.89922,-1.87291],[120.89935,-1.87607],[120.89946,-1.87683],[120.89963,-1.87808],[120.89833,-1.87818],[120.89861,-1.88072]]],[[[120.90687,-1.84791],[120.91412,-1.84843],[120.91443,-1.85393],[120.91073,-1.85665],[120.91189,-1.85898],[120.91036,-1.85788],[120.91041,-1.85536],[120.90713,-1.85487],[120.90309,-1.85879],[120.90137,-1.85857],[120.90687,-1.84791]]],[[[120.62566,-1.7438],[120.62697,-1.74408],[120.62659,-1.74648],[120.62405,-1.74837],[120.62329,-1.75146],[120.62426,-1.75518],[120.6172,-1.75431],[120.61626,-1.75501],[120.61813,-1.75731],[120.61553,-1.75679],[120.61749,-1.75905],[120.61571,-1.759],[120.61469,-1.75679],[120.6151,-1.76009],[120.61278,-1.76006],[120.61398,-1.75867],[120.61272,-1.75771],[120.61138,-1.75989],[120.60955,-1.75924],[120.61136,-1.76176],[120.6089,-1.76009],[120.60805,-1.76276],[120.60687,-1.76033],[120.60571,-1.763],[120.60435,-1.76142],[120.60461,-1.76313],[120.60226,-1.76342],[120.60448,-1.75657],[120.60289,-1.75434],[120.59833,-1.75574],[120.59851,-1.75368],[120.60638,-1.75211],[120.60789,-1.74722],[120.60653,-1.74624],[120.60784,-1.74546],[120.61034,-1.74788],[120.61101,-1.74697],[120.60852,-1.74533],[120.60929,-1.74391],[120.61092,-1.74359],[120.61025,-1.7456],[120.61264,-1.74711],[120.6135,-1.74561],[120.61233,-1.74392],[120.615,-1.74534],[120.61446,-1.74283],[120.61714,-1.74101],[120.61889,-1.74471],[120.62015,-1.74146],[120.62387,-1.74182],[120.62493,-1.7402],[120.62983,-1.74378],[120.62566,-1.7438]]],[[[120.81679,-1.70947],[120.81909,-1.71011],[120.82086,-1.71556],[120.82313,-1.71125],[120.82378,-1.71145],[120.82507,-1.71416],[120.82693,-1.71395],[120.82961,-1.71961],[120.83341,-1.71931],[120.83468,-1.7232],[120.838,-1.72044],[120.84037,-1.72318],[120.84442,-1.7205],[120.84593,-1.72219],[120.8441,-1.72715],[120.84347,-1.72574],[120.83566,-1.72975],[120.81747,-1.72495],[120.81904,-1.72426],[120.81679,-1.70947]]],[[[120.65666,-1.71435],[120.65878,-1.71475],[120.65858,-1.71716],[120.65666,-1.71435]]],[[[120.65512,-1.71341],[120.65585,-1.71321],[120.65639,-1.71466],[120.65576,-1.71539],[120.65512,-1.71341]]],[[[120.73986,-1.72056],[120.73808,-1.72536],[120.73728,-1.72257],[120.7319,-1.72706],[120.73031,-1.7312],[120.72786,-1.7319],[120.73137,-1.72555],[120.73594,-1.72247],[120.73382,-1.72058],[120.73845,-1.71857],[120.73728,-1.71743],[120.7385,-1.71425],[120.73648,-1.71184],[120.73213,-1.71249],[120.73036,-1.71475],[120.73248,-1.71175],[120.73425,-1.70335],[120.73116,-1.68563],[120.73313,-1.6851],[120.73313,-1.68065],[120.73612,-1.67623],[120.73419,-1.67311],[120.73596,-1.67334],[120.73629,-1.67074],[120.73359,-1.66859],[120.7357,-1.66834],[120.73819,-1.65815],[120.73971,-1.66399],[120.73884,-1.66829],[120.73948,-1.67005],[120.73966,-1.66787],[120.74133,-1.66969],[120.74018,-1.67537],[120.74308,-1.67611],[120.74181,-1.67437],[120.74423,-1.67178],[120.74338,-1.67385],[120.74567,-1.67424],[120.74684,-1.67818],[120.74915,-1.67893],[120.74601,-1.68314],[120.74923,-1.68439],[120.7465,-1.69096],[120.75361,-1.69185],[120.75335,-1.69631],[120.75768,-1.69974],[120.75833,-1.70343],[120.74768,-1.71331],[120.74352,-1.72145],[120.73986,-1.72056]]],[[[120.76543,-1.68827],[120.76859,-1.69115],[120.76471,-1.69245],[120.76129,-1.69165],[120.76177,-1.69337],[120.76357,-1.69266],[120.76574,-1.69519],[120.7627,-1.69502],[120.76081,-1.69338],[120.76083,-1.69138],[120.76195,-1.69112],[120.76071,-1.68664],[120.76765,-1.69077],[120.76543,-1.68827]]],[[[120.76152,-1.68546],[120.76248,-1.68506],[120.75945,-1.68283],[120.76319,-1.68275],[120.76759,-1.68601],[120.76335,-1.68741],[120.76152,-1.68546]]],[[[120.75349,-1.68824],[120.7507,-1.68525],[120.75078,-1.6831],[120.74884,-1.68231],[120.75108,-1.67887],[120.74871,-1.67572],[120.74965,-1.67524],[120.74747,-1.67593],[120.74691,-1.67426],[120.74797,-1.67153],[120.74966,-1.67281],[120.75087,-1.67145],[120.74936,-1.6683],[120.75107,-1.6689],[120.74709,-1.6658],[120.74904,-1.66502],[120.74612,-1.66255],[120.74741,-1.66131],[120.74984,-1.66265],[120.74895,-1.66074],[120.75307,-1.66368],[120.75283,-1.6658],[120.75062,-1.66655],[120.75226,-1.66914],[120.74999,-1.67519],[120.75106,-1.67679],[120.75348,-1.67599],[120.75196,-1.67777],[120.75396,-1.67799],[120.75349,-1.68824]]],[[[120.75263,-1.6564],[120.75152,-1.65812],[120.74455,-1.65354],[120.74495,-1.64598],[120.74617,-1.64615],[120.74853,-1.65493],[120.75263,-1.6564]]],[[[120.40411,-1.60754],[120.40045,-1.60848],[120.39627,-1.60578],[120.3961,-1.60417],[120.39364,-1.60657],[120.39165,-1.60412],[120.39368,-1.60132],[120.39696,-1.60155],[120.39661,-1.59835],[120.39515,-1.59778],[120.39715,-1.59513],[120.40577,-1.5964],[120.40804,-1.60163],[120.40411,-1.60754]]],[[[120.42217,-1.59204],[120.42182,-1.58951],[120.42367,-1.58983],[120.42435,-1.58825],[120.4272,-1.58954],[120.42871,-1.58844],[120.42845,-1.58742],[120.43115,-1.58722],[120.42996,-1.59126],[120.42768,-1.59119],[120.42416,-1.59486],[120.41921,-1.60419],[120.41859,-1.60109],[120.41484,-1.59942],[120.4132,-1.59596],[120.40688,-1.59148],[120.40858,-1.58824],[120.41132,-1.58919],[120.41176,-1.58796],[120.41522,-1.58883],[120.41713,-1.58842],[120.41783,-1.59057],[120.42217,-1.59204]]],[[[120.43162,-1.55788],[120.43442,-1.55652],[120.43453,-1.55264],[120.43565,-1.55693],[120.43913,-1.55753],[120.43633,-1.55408],[120.43625,-1.55076],[120.43872,-1.55383],[120.44229,-1.55296],[120.44027,-1.55734],[120.44231,-1.55675],[120.44352,-1.55878],[120.44471,-1.55769],[120.44564,-1.55895],[120.4415,-1.561],[120.4431,-1.56739],[120.44063,-1.56761],[120.43918,-1.57509],[120.43562,-1.57474],[120.43253,-1.58471],[120.4282,-1.58704],[120.42703,-1.58897],[120.42455,-1.58772],[120.42344,-1.58943],[120.42157,-1.58912],[120.42192,-1.59162],[120.4181,-1.59019],[120.41728,-1.58797],[120.41159,-1.5875],[120.40979,-1.5884],[120.40883,-1.58776],[120.41153,-1.58251],[120.40654,-1.57758],[120.41095,-1.57352],[120.41234,-1.57474],[120.41001,-1.57789],[120.41359,-1.58013],[120.4133,-1.57879],[120.41491,-1.57834],[120.41464,-1.5749],[120.41339,-1.57476],[120.41545,-1.57309],[120.41227,-1.57089],[120.41368,-1.56897],[120.41753,-1.57047],[120.41819,-1.56425],[120.42026,-1.56363],[120.41987,-1.5651],[120.42359,-1.56712],[120.42465,-1.5699],[120.42576,-1.56814],[120.42148,-1.56216],[120.42157,-1.55969],[120.42615,-1.55477],[120.4283,-1.54333],[120.43034,-1.54347],[120.43103,-1.53958],[120.43255,-1.53872],[120.43463,-1.53884],[120.43577,-1.54098],[120.43162,-1.55788]]],[[[120.95137,-1.89604],[120.95082,-1.89721],[120.94995,-1.8963],[120.95137,-1.89604]]],[[[120.94485,-1.88323],[120.94767,-1.88263],[120.94969,-1.88465],[120.94485,-1.88323]]],[[[120.93561,-1.87613],[120.93746,-1.87541],[120.93768,-1.87707],[120.93561,-1.87613]]],[[[120.93875,-1.87251],[120.93878,-1.87159],[120.93932,-1.87139],[120.93875,-1.87251]]],[[[120.97599,-1.86646],[120.97396,-1.86782],[120.97322,-1.86618],[120.97599,-1.86646]]],[[[120.92611,-1.8659],[120.92772,-1.8651],[120.92608,-1.86674],[120.92443,-1.8655],[120.92611,-1.8659]]],[[[120.96966,-1.86932],[120.96435,-1.86902],[120.9674,-1.86226],[120.9694,-1.86223],[120.97089,-1.86722],[120.96966,-1.86932]]],[[[120.97179,-1.8651],[120.97814,-1.86013],[120.97612,-1.86473],[120.97179,-1.8651]]],[[[120.92161,-1.86174],[120.92352,-1.86275],[120.92279,-1.86357],[120.92161,-1.86174]]],[[[120.97256,-1.86131],[120.97442,-1.86108],[120.97174,-1.8635],[120.97128,-1.86068],[120.97256,-1.86131]]],[[[120.92001,-1.8621],[120.92001,-1.86238],[120.91934,-1.86259],[120.91779,-1.86138],[120.92001,-1.8621]]],[[[120.93819,-1.86051],[120.93932,-1.86037],[120.93803,-1.86149],[120.93819,-1.86051]]],[[[120.91284,-1.85616],[120.91466,-1.85541],[120.91381,-1.85922],[120.91284,-1.85616]]],[[[120.91766,-1.85312],[120.91891,-1.85788],[120.91617,-1.85985],[120.91694,-1.86082],[120.9122,-1.86039],[120.91538,-1.86055],[120.91453,-1.85742],[120.9157,-1.85649],[120.91704,-1.85701],[120.91766,-1.85312]]],[[[120.93361,-1.8588],[120.93602,-1.85595],[120.93494,-1.85619],[120.93604,-1.85251],[120.93832,-1.85615],[120.93361,-1.8588]]],[[[120.91665,-1.85502],[120.91477,-1.85517],[120.91474,-1.85276],[120.91665,-1.85502]]],[[[120.93292,-1.84334],[120.93448,-1.84151],[120.93735,-1.84922],[120.93604,-1.85084],[120.93292,-1.84334]]],[[[122.86501,-0.8759],[122.86643,-0.8759],[122.86575,-0.87717],[122.86501,-0.8759]]],[[[122.86763,-0.8767],[122.86766,-0.87606],[122.86936,-0.87643],[122.86763,-0.8767]]]]},"properties":{"pbph":"PT HONGTAI INTERNASIONAL"}}]}